ONEWEB-0306             
1 49188U 21083C   24062.75701542 -.00000302  00000+0 -79975-3 0  9995
2 49188  87.9221 141.9234 0002262 105.1938 254.9444 13.18685189119782
ONEWEB-0307             
1 49189U 21083D   24063.18584081 -.00000039  00000+0 -14285-3 0  9991
2 49189  87.8969 126.6770 0001950 102.5533 257.5814 13.13470930122472
ONEWEB-0320             
1 49190U 21083E   24063.21860396  .00000053  00000+0  10153-3 0  9997
2 49190  87.9222 141.8549 0001858 103.4113 256.7227 13.18687131121084
ONEWEB-0321             
1 49191U 21083F   24062.61870404  .00000068  00000+0  13500-3 0  9997
2 49191  87.9126  80.9328 0001872  82.9781 277.1565 13.20772150126406
ONEWEB-0322             
1 49192U 21083G   24062.72477852 -.00000072  00000+0 -23193-3 0  9996
2 49192  87.8969 126.7577 0001602  89.2064 270.9248 13.13467912121112
ONEWEB-0324             
1 49193U 21083H   24062.74911582 -.00000011  00000+0 -59878-4 0  9995
2 49193  87.9221 141.9308 0001725 113.0923 247.0391 13.18686701119768
ONEWEB-0325             
1 49194U 21083J   24063.13324218  .00000093  00000+0  20272-3 0  9997
2 49194  87.9222 141.8675 0001913 102.2721 257.8626 13.18685402121109
ONEWEB-0326             
1 49195U 21083K   24062.76808175 -.00000352  00000+0 -92592-3 0  9999
2 49195  87.9220 141.9408 0002380 117.4639 242.6736 13.18689021119762
